ONEWEB-0709             
1 55172U 23004AJ  24354.82689114  .00000520  00000+0  14318-2 0  9991
2 55172  87.8897 129.5760 0001467 140.0118 220.1118 13.11416242 94522
ONEWEB-0710             
1 55173U 23004AK  24354.81736865  .00000058  00000+0  11570-3 0  9991
2 55173  87.9100 114.3388 0001773 102.4433 257.6897 13.17647061 95892
ONEWEB-0711             
1 55174U 23004AL  24354.87435806 -.00000508  00000+0 -14694-2 0  9990
2 55174  87.8899 129.5349 0002386  99.6821 260.4576 13.11417050 94499
ONEWEB-0713             
1 55175U 23004AM  24354.81671275  .00000154  00000+0  39926-3 0  9998
2 55175  87.8899 129.5545 0001847  98.9744 261.1593 13.11419850 94470
ONEWEB-0715             
1 55176U 23004AN  24354.81162156 -.00000010  00000+0 -62961-4 0  9991
2 55176  87.8899 129.5557 0001604 115.4647 244.6647 13.11419716 94514
ONEWEB-0716             
1 55177U 23004AP  24354.81062059  .00000041  00000+0  72453-4 0  9992
2 55177  87.9103 114.3358 0001551  96.6691 263.4617 13.17651366 95898
ONEWEB-0717             
1 55178U 23004AQ  24354.86968944  .00000110  00000+0  24902-3 0  9998
2 55178  87.9099 114.2857 0002443 109.3044 250.8352 13.17650175 95951
ONEWEB-0719             
1 55179U 23004AR  24354.80387044  .00000040  00000+0  70558-4 0  9990
2 55179  87.9100 114.2837 0001637  94.0751 266.0568 13.17649967 95890
ONEWEB-0530             
1 55796U 23029A   24355.08094589 -.00000024  00000+0 -90101-4 0  9992
2 55796  87.9253  22.7325 0002421  91.6215 268.5196 13.20772675 90031
ONEWEB-0534             
1 55797U 23029B   24354.61377012 -.00000035  00000+0 -11694-3 0  9997
2 55797  87.9253  22.8326 0001778  90.9498 269.1839 13.20769350 89263
ONEWEB-0556             
1 55798U 23029C   24355.07461907  .00000007  00000+0 -15824-4 0  9994
2 55798  87.9254  22.7338 0002303  73.9006 286.2381 13.20769861 90012
ONEWEB-0562             
1 55799U 23029D   24355.06200366 -.00000064  00000+0 -19027-3 0  9996
2 55799  87.9254  22.7279 0002786  82.9016 277.2434 13.20773085 90004
ONEWEB-0563             
1 55800U 23029E   24355.05569105 -.00000064  00000+0 -18947-3 0  9997
2 55800  87.9254  22.7440 0001555  85.4978 274.6333 13.20772954 89994
ONEWEB-0564             
1 55801U 23029F   24355.04937980  .00000007  00000+0 -14402-4 0  9996
2 55801  87.9255  22.7324 0002246  91.5321 268.6070 13.20772088 90031
ONEWEB-0638             
1 55802U 23029G   24355.07478591 -.00000394  00000+0 -10985-2 0  9998
2 55802  87.9005  37.9599 0002008  80.0790 280.0566 13.14502850 88627
ONEWEB-0639             
1 55803U 23029H   24354.66733836  .00000066  00000+0  13262-3 0  9995
2 55803  87.9178  53.2517 0000568  95.5261 264.5936 13.19724984 87089
ONEWEB-0640             
1 55804U 23029J   24355.08431197 -.00000088  00000+0 -27117-3 0  9998
2 55804  87.9002  37.9501 0001651  70.5782 289.5526 13.14503446 88618
ONEWEB-0641             
1 55805U 23029K   24354.73841985  .00000115  00000+0  25606-3 0  9990
2 55805  87.9173  53.2145 0001507 103.6059 256.5241 13.19726740 87108
ONEWEB-0642             
1 55806U 23029L   24354.73366520 -.00000315  00000+0 -81809-3 0  9999
2 55806  87.9179  53.2454 0000910 120.0685 240.0538 13.19725126 87095
ONEWEB-0643             
1 55807U 23029M   24355.05418227  .00000130  00000+0  31732-3 0  9991
2 55807  87.9006  37.9360 0001291 127.9689 232.1557 13.14503238 88618
ONEWEB-0644             
1 55808U 23029N   24354.72893851  .00000095  00000+0  20529-3 0  9997
2 55808  87.9179  53.2463 0001253 109.9137 250.2131 13.19724163 87098
ONEWEB-0645             
1 55809U 23029P   24355.17988039 -.00000326  00000+0 -84660-3 0  9996
2 55809  87.9178  53.1553 0001581  91.6595 268.4719 13.19725698 87846
ONEWEB-0646             
1 55810U 23029Q   24355.13408161  .00000133  00000+0  30097-3 0  9996
2 55810  87.9175  53.1608 0001578 106.0344 254.0962 13.19724283 87823
ONEWEB-0648             
1 55811U 23029R   24354.64187726  .00000101  00000+0  23822-3 0  9996
2 55811  87.9006  37.9913 0000804  84.1460 275.9761 13.14501724 87852
ONEWEB-0649             
1 55812U 23029S   24354.71787619  .00000032  00000+0  46480-4 0  9991
2 55812  87.9174  53.2362 0001253  96.9019 263.2256 13.19727454 87111
ONEWEB-0650             
1 55813U 23029T   24355.16803495 -.00000144  00000+0 -39266-3 0  9992
2 55813  87.9177  53.1522 0001557 102.7094 257.4213 13.19726520 87838
ONEWEB-0652             
1 55814U 23029U   24355.07955213 -.00000122  00000+0 -36293-3 0  9992
2 55814  87.9004  37.9149 0001960  98.0099 262.1254 13.14502595 88572
ONEWEB-0653             
1 55815U 23029V   24355.13980247 -.00000007  00000+0 -52431-4 0  9990
2 55815  87.9009  37.8877 0001908  91.6472 268.4876 13.14504568 88617
ONEWEB-0654             
1 55816U 23029W   24355.13505935  .00000045  00000+0  87127-4 0  9998
2 55816  87.9007  37.8940 0002251  94.1323 266.0064 13.14502291 88638
ONEWEB-0656             
1 55817U 23029X   24355.04306026  .00000085  00000+0  17763-3 0  9991
2 55817  87.9255  22.6751 0002476  99.3944 260.7469 13.20773105 90006
ONEWEB-0657             
1 55818U 23029Y   24355.16329223 -.00000096  00000+0 -27276-3 0  9993
2 55818  87.9176  53.1581 0002421 117.3407 242.7972 13.19728394 87838
ONEWEB-0658             
1 55819U 23029Z   24354.70365776 -.00000082  00000+0 -23706-3 0  9995
2 55819  87.9177  53.1841 0001323 108.1627 251.9650 13.19723322 87102
ONEWEB-0660             
1 55820U 23029AA  24355.11285819  .00000255  00000+0  65441-3 0  9994
2 55820  87.9004  37.8714 0001511  86.6322 273.4981 13.14503474 88636
ONEWEB-0661             
1 55821U 23029AB  24355.07163590 -.00000077  00000+0 -24100-3 0  9992
2 55821  87.9007  37.9475 0001608  82.7236 277.4077 13.14507103 88591
ONEWEB-0662             
1 55822U 23029AC  24355.10651564  .00000175  00000+0  43788-3 0  9990
2 55822  87.9004  37.9485 0001453  90.2910 269.8386 13.14503391 88662
ONEWEB-0663             
1 55823U 23029AD  24355.03186458  .00000104  00000+0  22283-3 0  9997
2 55823  87.9254  22.7360 0001453  86.3035 273.8265 13.20817925 89994
ONEWEB-0664             
1 55824U 23029AE  24354.65164082 -.00000169  00000+0 -44664-3 0  9994
2 55824  87.9255  22.8281 0002030  82.1338 278.0025 13.20771350 89263
ONEWEB-0665             
1 55825U 23029AF  24355.06844750 -.00000061  00000+0 -19845-3 0  9992
2 55825  87.9006  37.9234 0001528  92.8915 267.2389 13.14506358 88611
ONEWEB-0666             
1 55826U 23029AG  24355.09988009  .00000127  00000+0  28121-3 0  9990
2 55826  87.9256  22.7284 0002178  97.5784 262.5596 13.20770158 90017
ONEWEB-0667             
1 55827U 23029AH  24355.01780113  .00000173  00000+0  39415-3 0  9998
2 55827  87.9253  22.6777 0001742  88.2769 271.8564 13.20773903 89991
ONEWEB-0669             
1 55828U 23029AJ  24355.01308273  .00000011  00000+0 -57231-5 0  9992
2 55828  87.9254  22.7153 0002620  90.2862 269.8572 13.20775140 89996
ONEWEB-0670             
1 55829U 23029AK  24354.66564932  .00000244  00000+0  62451-3 0  9994
2 55829  87.9010  38.0158 0001772  81.6039 278.5292 13.14504672 87895
ONEWEB-0671             
1 55830U 23029AL  24354.69892614  .00000047  00000+0  86262-4 0  9998
2 55830  87.9180  53.2464 0001723  89.3641 270.7689 13.19726694 87084
ONEWEB-0672             
1 55831U 23029AM  24355.00834445  .00000048  00000+0  86128-4 0  9995
2 55831  87.9254  22.7010 0002123  99.6797 260.4577 13.20772497 89994
ONEWEB-0673             
1 55832U 23029AN  24354.67523938  .00000211  00000+0  49394-3 0  9995
2 55832  87.9177  53.2162 0001759 102.5702 257.5627 13.19728178 87086
ONEWEB-0674             
1 55833U 23029AP  24354.63393865 -.00000053  00000+0 -17772-3 0  9997
2 55833  87.9003  38.0179 0001860  79.4991 280.6348 13.14505152 87873
ONEWEB-0675             
1 55834U 23029AQ  24354.69101685  .00000015  00000+0  50711-5 0  9999
2 55834  87.9179  53.2539 0001881 112.3157 247.8175 13.19728106 87101
ONEWEB-0720             
1 55835U 23029AR  24354.68312530  .00000135  00000+0  30558-3 0  9990
2 55835  87.9176  53.2537 0001335  96.6394 263.4891 13.19727684 87028
ONEWEB-0537             
1 56046U 23043A   24354.98037373 -.00000047  00000+0 -15545-3 0  9996
2 56046  87.9082 337.1852 0001876  93.9072 266.2273 13.16594399 88260
ONEWEB-0538             
1 56047U 23043B   24354.97404281 -.00000043  00000+0 -14728-3 0  9990
2 56047  87.9084 337.2076 0001566  94.1528 265.9782 13.16594534 88270
ONEWEB-0546             
1 56048U 23043C   24354.96138038  .00000015  00000+0  66512-5 0  9991
2 56048  87.9086 337.1772 0002444  99.3222 260.8185 13.16595099 87355
ONEWEB-0547             
1 56049U 23043D   24355.06797706 -.00000134  00000+0 -35584-3 0  9994
2 56049  87.9293 352.3864 0001645  93.5416 266.5906 13.21825385 87253
ONEWEB-0548             
1 56050U 23043E   24354.91071321  .00000011  00000+0 -36526-5 0  9999
2 56050  87.9082 337.2288 0002025  72.0369 288.0982 13.16595841 87343
ONEWEB-0549             
1 56051U 23043F   24355.05930447 -.00000067  00000+0 -19329-3 0  9991
2 56051  87.9293 352.3891 0001388  96.5618 263.5674 13.21826387 87259
ONEWEB-0550             
1 56052U 23043G   24354.97096989  .00000085  00000+0  17455-3 0  9992
2 56052  87.9291 352.4077 0001846  84.6188 275.5156 13.21829468 87244
ONEWEB-0551             
1 56053U 23043H   24354.96504950  .00000191  00000+0  47440-3 0  9999
2 56053  87.9067   7.5862 0001509  91.7213 268.4091 13.15551260 84847
ONEWEB-0552             
1 56054U 23043J   24355.04035926 -.00000335  00000+0 -84161-3 0  9995
2 56054  87.9289 352.4032 0001614  81.1588 278.9729 13.21825495 87253
ONEWEB-0553             
1 56055U 23043K   24354.96770922 -.00000001  00000+0 -37269-4 0  9996
2 56055  87.9086 337.2057 0001984  94.3027 265.8331 13.16592668 87364
ONEWEB-0554             
1 56056U 23043L   24354.95504494  .00000066  00000+0  13914-3 0  9994
2 56056  87.9088 337.2343 0001982  68.0349 292.0993 13.16595879 87349
